ONEWEB-0694             
1 56722U 23068N   23240.84990398  .00001965  00000+0  26796-3 0  9995
2 56722  86.7210  99.2639 0012745 227.4884 132.5261 14.78116088 14975
ONEWEB-0696             
1 56723U 23068P   23240.91667824 -.00891510  00000+0 -93841+0 0  9995
2 56723  87.4282 103.2831 0009557 259.0529  13.9348 13.78219228  5480
ONEWEB-0703             
1 56724U 23068Q   23240.91667824  .00000015  00000+0  00000+0 0  9991
2 56724  87.5407 103.6798 0008881 254.0526   8.4146 13.66543769  5570
ONEWEB-0721             
1 56725U 23068R   23240.87505922  .00001788  00000+0  21631-3 0  9992
2 56725  86.6734  98.5499 0008954 223.7638 136.2877 14.83085613 15012
